NORAD_CAT_ID,OBJECT_NAME,OBJECT_TYPE,EPOCH,MEAN_MOTION,ECCENTRICITY,INCLINATION,RA_OF_ASC_NODE,ARG_OF_PERICENTER,MEAN_ANOMALY,BSTAR,MEAN_MOTION_DOT,MEAN_MOTION_DDOT,TLE_LINE0,TLE_LINE1,TLE_LINE2,SEMIMAJOR_AXIS,PERIOD,APOGEE,PERIGEE,DECAYED
53776.0,STARLINK-4708,PAYLOAD,2022-10-01 14:00:01,15.73215499,0.0001271,53.2148,165.5369,128.625,26.4721,0.00011171,0.00015096,0.0,0 STARLINK-4708,1 53776U 22111D   22274.58334491  .00015096  00000-0  11171-3 0  9994,2 53776  53.2148 165.5369 0001271 128.6250  26.4721 15.73215499  1305,6727.851,91.532,350.571,348.861,0.0
53776.0,STARLINK-4708,PAYLOAD,2022-10-01 22:00:00,15.73215418,0.0001323,53.2147,163.8891,120.203,123.8395,-0.00059797,-0.00083765,0.0,0 STARLINK-4708,1 53776U 22111D   22274.91667824 -.00083765  00000-0 -59797-3 0  9996,2 53776  53.2147 163.8891 0001323 120.2030 123.8395 15.73215418  1307,6727.851,91.532,350.606,348.826,0.0
53776.0,STARLINK-4708,PAYLOAD,2022-10-02 14:00:01,15.73124798,0.0001450999999999,53.2146,160.5884,128.9039,292.9475,0.00088115,0.0012449,0.0,0 STARLINK-4708,1 53776U 22111D   22275.58334491  .00124490  00000-0  88115-3 0  9996,2 53776  53.2146 160.5884 0001451 128.9039 292.9475 15.73124798  3329,6728.11,91.538,350.951,348.99800000000016,0.0
53776.0,STARLINK-4708,PAYLOAD,2022-10-02 22:00:00,15.73205776,0.0001363,53.2148,158.9407,122.2381,28.4872,0.00040794,0.00057035,0.0,0 STARLINK-4708,1 53776U 22111D   22275.91667824  .00057035  00000-0  40794-3 0  9993,2 53776  53.2148 158.9407 0001363 122.2381  28.4872 15.73205776  1307,6727.879,91.533,350.661,348.827,0.0
53776.0,STARLINK-4708,PAYLOAD,2022-10-03 14:00:01,15.73210733,0.0001398,53.2149,155.6398,132.1133,196.5946,0.00058593,0.00082461,0.0,0 STARLINK-4708,1 53776U 22111D   22276.58334491  .00082461  00000-0  58593-3 0  9995,2 53776  53.2149 155.6398 0001398 132.1133 196.5946 15.73210733  3472,6727.865,91.533,350.67,348.789,0.0
53776.0,STARLINK-4708,PAYLOAD,2022-10-03 22:00:00,15.73279592,0.0001125999999999,53.2147,153.9923,130.9503,286.7033,-0.00052216,-0.00073512,0.0,0 STARLINK-4708,1 53776U 22111D   22276.91667824 -.00073512  00000-0 -52216-3 0  9996,2 53776  53.2147 153.9923 0001126 130.9503 286.7033 15.73279592  3524,6727.668000000002,91.529,350.291,348.776,0.0
53776.0,STARLINK-4708,PAYLOAD,2022-10-04 14:00:01,15.73183758,0.0001450999999999,53.2147,150.6912,131.0904,104.5282,-7.0082e-05,-0.00010437,0.0,0 STARLINK-4708,1 53776U 22111D   22277.58334491 -.00010437  00000-0 -70082-4 0  9990,2 53776  53.2147 150.6912 0001451 131.0904 104.5282 15.73183758  1309,6727.941,91.534,350.783,348.83,0.0
53776.0,STARLINK-4708,PAYLOAD,2022-10-04 16:00:00,15.73182372,0.000155,53.2151,150.2792,131.0711,216.7739,-5.3195e-05,-8.073e-05,0.0,0 STARLINK-4708,1 53776U 22111D   22277.66667824 -.00008073  00000-0 -53195-4 0  9997,2 53776  53.2151 150.2792 0001550 131.0711 216.7739 15.73182372  3645,6727.945,91.534,350.853,348.76800000000014,0.0
53776.0,STARLINK-4708,PAYLOAD,2022-10-04 22:00:00,15.73190115,0.0001431,53.2147,149.0436,123.2838,201.2637,-0.00011412,-0.00016598,0.0,0 STARLINK-4708,1 53776U 22111D   22277.91667824 -.00016598  00000-0 -11412-3 0  9991,2 53776  53.2147 149.0436 0001431 123.2838 201.2637 15.73190115  1303,6727.9230000000025,91.534,350.751,348.826,0.0
53776.0,STARLINK-4708,PAYLOAD,2022-10-05 14:00:01,15.7316963,0.0001625,53.2149,145.7431,126.3206,16.0298,5.8983e-05,7.655e-05,0.0,0 STARLINK-4708,1 53776U 22111D   22278.58335648  .00007655  00000-0  58983-4 0  9998,2 53776  53.2149 145.7431 0001625 126.3206  16.0298 15.73169630  1304,6727.982,91.535,350.94,348.75300000000016,0.0
53776.0,STARLINK-4708,PAYLOAD,2022-10-05 22:00:00,15.73140363,0.0001582,53.2146,144.0958,116.8984,114.291,0.0005099999999999,0.00071383,0.0,0 STARLINK-4708,1 53776U 22111D   22278.91667824  .00071383  00000-0  51000-3 0  9990,2 53776  53.2146 144.0958 0001582 116.8984 114.2910 15.73140363  3841,6728.065,91.537,350.995,348.866,0.0
53776.0,STARLINK-4708,PAYLOAD,2022-10-06 06:00:00,15.73277542,0.000146,53.215,142.4469,119.3542,200.7124,-0.0004862,-0.00068529,0.0,0 STARLINK-4708,1 53776U 22111D   22279.25001157 -.00068529  00000-0 -48620-3 0  9993,2 53776  53.2150 142.4469 0001460 119.3542 200.7124 15.73277542  3891,6727.674,91.529,350.521,348.557,0.0
53776.0,STARLINK-4708,PAYLOAD,2022-10-06 14:00:01,15.73222898,0.0001534,53.2144,140.7948,132.9071,276.1446,0.00012961,0.00017626,0.0,0 STARLINK-4708,1 53776U 22111D   22279.58334491  .00017626  00000-0  12961-3 0  9998,2 53776  53.2144 140.7948 0001534 132.9071 276.1446 15.73222898  1309,6727.83,91.532,350.727,348.663,0.0
53776.0,STARLINK-4708,PAYLOAD,2022-10-06 22:42:55,15.73211817,0.0001341,53.2145,138.9999,124.7001,182.1482,-0.00011542,-0.00016794,0.0,0 STARLINK-4708,1 53776U 22111D   22279.94646991 -.00016794  00000-0 -11542-3 0  9990,2 53776  53.2145 138.9999 0001341 124.7001 182.1482 15.73211817  1308,6727.861,91.532,350.629,348.824,0.0
53776.0,STARLINK-4708,PAYLOAD,2022-10-07 00:00:00,15.73196881,0.0001303,53.2146,138.7353,123.2723,126.9917,8.384e-05,0.0001115999999999,0.0,0 STARLINK-4708,1 53776U 22111D   22280.00001157  .00011160  00000-0  83840-4 0  9999,2 53776  53.2146 138.7353 0001303 123.2723 126.9917 15.73196881  4017,6727.904,91.533,350.646,348.892,0.0
53776.0,STARLINK-4708,PAYLOAD,2022-10-07 14:00:01,15.73208736,0.0001559,53.2143,135.8462,128.5319,187.3537,-8.641700000000001e-05,-0.00012735,0.0,0 STARLINK-4708,1 53776U 22111D   22280.58334491 -.00012735  00000-0 -86417-4 0  9996,2 53776  53.2143 135.8462 0001559 128.5319 187.3537 15.73208736  1306,6727.87,91.533,350.784,348.686,0.0
53776.0,STARLINK-4708,PAYLOAD,2022-10-07 22:00:00,15.73187501,0.0001436,53.2138,134.1987,121.6381,283.1864,-2.4335e-06,-9.61e-06,0.0,0 STARLINK-4708,1 53776U 22111D   22280.91667824 -.00000961  00000-0 -24335-5 0  9992,2 53776  53.2138 134.1987 0001436 121.6381 283.1864 15.73187501  4151,6727.931,91.534,350.76199999999994,348.83,0.0
53776.0,STARLINK-4708,PAYLOAD,2022-10-08 14:00:01,15.73195203,0.0001585,53.2148,130.8974,129.5986,93.0719,0.0002174,0.00029993,0.0,0 STARLINK-4708,1 53776U 22111D   22281.58334491  .00029993  00000-0  21740-3 0  9996,2 53776  53.2148 130.8974 0001585 129.5986  93.0719 15.73195203  1303,6727.909000000002,91.533,350.84,348.707,0.0
53776.0,STARLINK-4708,PAYLOAD,2022-10-08 22:00:00,15.73225385,0.0001455,53.2152,129.2498,120.6192,191.0091,0.0001314,0.0001788,0.0,0 STARLINK-4708,1 53776U 22111D   22281.91667824  .00017880  00000-0  13140-3 0  9999,2 53776  53.2152 129.2498 0001455 120.6192 191.0091 15.73225385  4319,6727.823,91.532,350.667,348.709,0.0
53776.0,STARLINK-4708,PAYLOAD,2022-10-09 06:00:00,15.73238251,0.0001344,53.2152,127.5991,125.4868,275.0856,-0.00084481,-0.00117731,0.0,0 STARLINK-4708,1 53776U 22111D   22282.25001157 -.00117731  00000-0 -84481-3 0  9992,2 53776  53.2152 127.5991 0001344 125.4868 275.0856 15.73238251  4361,6727.786,91.531,350.555,348.747,0.0
53776.0,STARLINK-4708,PAYLOAD,2022-10-09 14:00:01,15.73150978,0.0001395,53.2152,125.9486,133.4016,356.1079,0.00036075,0.00050206,0.0,0 STARLINK-4708,1 53776U 22111D   22282.58334491  .00050206  00000-0  36075-3 0  9995,2 53776  53.2152 125.9486 0001395 133.4016 356.1079 15.73150978  4426,6728.035,91.536,350.839,348.961,0.0
53776.0,STARLINK-4708,PAYLOAD,2022-10-09 22:00:00,15.73155241,0.0001002,53.2147,124.3012,127.0195,91.3873,0.0002044999999999,0.00028121,0.0,0 STARLINK-4708,1 53776U 22111D   22282.91667824  .00028121  00000-0  20450-3 0  9992,2 53776  53.2147 124.3012 0001002 127.0195  91.3873 15.73155241  1302,6728.023,91.536,350.56199999999984,349.214,0.0
53776.0,STARLINK-4708,PAYLOAD,2022-10-10 08:00:01,15.73166612,0.0001077,53.2153,122.2379,142.4997,277.0296,0.00026457,0.00036619,0.0,0 STARLINK-4708,1 53776U 22111D   22283.33334491  .00036619  00000-0  26457-3 0  9994,2 53776  53.2153 122.2379 0001077 142.4997 277.0296 15.73166612  4540,6727.99,91.535,350.58,349.131,0.0
53776.0,STARLINK-4708,PAYLOAD,2022-10-10 14:00:01,15.7322051,0.0001252,53.2148,120.9999,135.5998,260.6354,0.00038478,0.00053775,0.0,0 STARLINK-4708,1 53776U 22111D   22283.58334491  .00053775  00000-0  38478-3 0  9999,2 53776  53.2148 120.9999 0001252 135.5998 260.6354 15.73220510  1308,6727.837,91.532,350.5440000000001,348.8590000000001,0.0
53776.0,STARLINK-4708,PAYLOAD,2022-10-10 22:00:01,15.73316416,0.0001190999999999,53.216,119.3537,126.4653,358.8056,-0.0023066999999999,-0.00314116,0.0,0 STARLINK-4708,1 53776U 22111D   22283.91668981 -.00314116  00000-0 -23067-2 0  9998,2 53776  53.2160 119.3537 0001191 126.4653 358.8056 15.73316416  4630,6727.563,91.526,350.23,348.62699999999984,0.0
53776.0,STARLINK-4708,PAYLOAD,2022-10-11 06:00:00,15.73183886,0.0001151,53.2154,117.7015,122.628,91.5241,-0.0001891,-0.00027054,0.0,0 STARLINK-4708,1 53776U 22111D   22284.25001157 -.00027054  00000-0 -18910-3 0  9996,2 53776  53.2154 117.7015 0001151 122.6280  91.5241 15.73183886  4681,6727.941,91.534,350.581,349.032,0.0
53776.0,STARLINK-4708,PAYLOAD,2022-10-11 14:00:01,15.73159232,0.0001394,53.2172,116.0533,125.9137,177.1189,0.00054347,0.00076213,0.0,0 STARLINK-4708,1 53776U 22111D   22284.58334491  .00076213  00000-0  54347-3 0  9995,2 53776  53.2172 116.0533 0001394 125.9137 177.1189 15.73159232  1300,6728.011,91.536,350.814,348.939,0.0
53776.0,STARLINK-4708,PAYLOAD,2022-10-11 22:00:00,15.73148195,0.0001244,53.2144,114.4037,110.2546,281.6572,0.00079395,0.00112053,0.0,0 STARLINK-4708,1 53776U 22111D   22284.91667824  .00112053  00000-0  79395-3 0  9994,2 53776  53.2144 114.4037 0001244 110.2546 281.6572 15.73148195  1308,6728.043000000002,91.536,350.745,349.071,0.0
53776.0,STARLINK-4708,PAYLOAD,2022-10-12 06:00:00,15.73236381,0.000128,53.2148,112.7529,116.6056,4.2175,-0.00023289,-0.00033226,0.0,0 STARLINK-4708,1 53776U 22111D   22285.25001157 -.00033226  00000-0 -23289-3 0  9990,2 53776  53.2148 112.7529 0001280 116.6056   4.2175 15.73236381  4840,6727.791,91.531,350.51800000000014,348.795,0.0
